{
    "links": {
        "self": "http://www.neowsapp.com/rest/v1/neo/3648744?api_key=iIulBulltgU6a56xZRHN4H3l9WmuAYTsLGpBGhQ2"
    },
    "id": "3648744",
    "neo_reference_id": "3648744",
    "name": "(2013 TJ)",
    "designation": "2013 TJ",
    "nasa_jpl_url": "http://ssd.jpl.nasa.gov/sbdb.cgi?sstr=3648744",
    "absolute_magnitude_h": 25.7,
    "estimated_diameter": {
        "kilometers": {
            "estimated_diameter_min": 0.0192555078,
            "estimated_diameter_max": 0.0430566244
        },
        "meters": {
            "estimated_diameter_min": 19.2555078188,
            "estimated_diameter_max": 43.0566244241
        },
        "miles": {
            "estimated_diameter_min": 0.0119648141,
            "estimated_diameter_max": 0.0267541378
        },
        "feet": {
            "estimated_diameter_min": 63.1742402722,
            "estimated_diameter_max": 141.2618956756
        }
    },
    "is_potentially_hazardous_asteroid": false,
    "close_approach_data": [
        {
            "close_approach_date": "2013-09-29",
            "close_approach_date_full": "2013-Sep-29 15:35",
            "epoch_date_close_approach": 1380468900000,
            "relative_velocity": {
                "kilometers_per_second": "19.8315940415",
                "kilometers_per_hour": "71393.7385494392",
                "miles_per_hour": "44361.2927114557"
            },
            "miss_distance": {
                "astronomical": "0.029731823",
                "lunar": "11.565679147",
                "kilometers": "4447817.39201701",
                "miles": "2763745.570814338"
            },
            "orbiting_body": "Earth"
        }
    ],
    "orbital_data": {
        "orbit_id": "7",
        "orbit_determination_date": "2019-07-19 05:25:44",
        "first_observation_date": "2013-10-01",
        "last_observation_date": "2013-10-03",
        "data_arc_in_days": 2,
        "observations_used": 27,
        "orbit_uncertainty": "8",
        "minimum_orbit_intersection": ".0297269",
        "jupiter_tisserand_invariant": "3.478",
        "epoch_osculation": "2456567.5",
        "eccentricity": ".5867024971969481",
        "semi_major_axis": "2.026934436907954",
        "inclination": "25.63914979616547",
        "ascending_node_longitude": "188.9258844196537",
        "orbital_period": "1054.042151382594",
        "perihelion_distance": ".8377269411195678",
        "perihelion_argument": "117.9744343016597",
        "aphelion_distance": "3.216141932696341",
        "perihelion_time": "2456522.981568771338",
        "mean_anomaly": "15.20492821022013",
        "mean_motion": ".3415423183292866",
        "equinox": "J2000",
        "orbit_class": {
            "orbit_class_type": "APO",
            "orbit_class_description": "Near-Earth asteroid orbits which cross the Earth’s orbit similar to that of 1862 Apollo",
            "orbit_class_range": "a (semi-major axis) > 1.0 AU; q (perihelion) < 1.017 AU"
        }
    },
    "is_sentry_object": false
}